[{"OBJECT_NAME":"YAOGAN-30 04B","OBJECT_ID":"2017-085B","EPOCH":"2026-03-09T23:08:06.218304","MEAN_MOTION":15.02136468,"ECCENTRICITY":0.00051709,"INCLINATION":34.9961,"RA_OF_ASC_NODE":34.6701,"ARG_OF_PERICENTER":206.1156,"MEAN_ANOMALY":153.9292,"EPHEMERIS_TYPE":0,"CLASSIFICATION_TYPE":"U","NORAD_CAT_ID":43082,"ELEMENT_SET_NO":999,"REV_AT_EPOCH":44776,"BSTAR":0.0003202307,"MEAN_MOTION_DOT":4.272e-5,"MEAN_MOTION_DDOT":0},{"OBJECT_NAME":"STARLINK-35296","OBJECT_ID":"2025-218L","EPOCH":"2026-03-09T15:00:33.034176","MEAN_MOTION":15.05649542,"ECCENTRICITY":0.000221,"INCLINATION":97.6028,"RA_OF_ASC_NODE":292.9464,"ARG_OF_PERICENTER":80.139,"MEAN_ANOMALY":280.0086,"EPHEMERIS_TYPE":0,"CLASSIFICATION_TYPE":"U","NORAD_CAT_ID":65801,"ELEMENT_SET_NO":999,"REV_AT_EPOCH":2496,"BSTAR":0.0001944,"MEAN_MOTION_DOT":2.745e-5,"MEAN_MOTION_DDOT":0}]
